#aV2010  4 17  0  0   .00000000      96 DD+AD WGS84 FIT  NGA
## 1579 518400.00000000   900.00000000 55303  .0000000000000
+   31     1  2  3  4  5  6  7  8  9 10 11 12 13 14 15 16 17
+         18 19 20 21 22 23 24 26 27 28 29 30 31 32  0  0  0
+          0  0  0  0  0  0  0  0  0  0  0  0  0  0  0  0  0
+          0  0  0  0  0  0  0  0  0  0  0  0  0  0  0  0  0
+          0  0  0  0  0  0  0  0  0  0  0  0  0  0  0  0  0
++         0  0  0  0  0  0  0  0  0  0  0  0  0  0  0  0  0
++         0  0  0  0  0  0  0  0  0  0  0  0  0  0  0  0  0
++         0  0  0  0  0  0  0  0  0  0  0  0  0  0  0  0  0
++         0  0  0  0  0  0  0  0  0  0  0  0  0  0  0  0  0
++         0  0  0  0  0  0  0  0  0  0  0  0  0  0  0  0  0
%c cc cc ccc ccc cccc cccc cccc cccc ccccc ccccc ccccc ccccc
%c cc cc ccc ccc cccc cccc cccc cccc ccccc ccccc ccccc ccccc
%f  0.0000000  0.000000000  0.00000000000  0.000000000000000
%f  0.0000000  0.000000000  0.00000000000  0.000000000000000
%i    0    0    0    0      0      0      0      0         0
%i    0    0    0    0      0      0      0      0         0
/*      NGA, ST. LOUIS,MO.                                  
/*   EPHEMERIS COMPUTED FROM  3 DAYS OF DATA                
/* CCCCCCCCCCCCCCCCCCCCCCCCCCCCCCCCCCCCCCCCCCCCCCCCCCCCCCCCC
/* CCCCCCCCCCCCCCCCCCCCCCCCCCCCCCCCCCCCCCCCCCCCCCCCCCCCCCCCC
*  2010  4 17  7 45   .00000000                                                 
P  1 -11968.463864  23238.928341  -4431.804479   -110.235188                    
V  1  -5364.695995   3020.572401  31249.073990      -.040735                    
P  2 -14508.006404 -22152.302448  -4197.950195    247.224622                    
V  2    343.764872  -6026.777858  30410.169212       .036174                    
P  3  18567.589700  11155.151680 -15951.831896    542.992313                    
V  3 -19454.111769   3154.547926 -20565.441165       .051013                    
P  4  -3943.424840 -24250.238329   9444.853254     61.833997                    
V  4   8458.442609   9683.642598  28253.558619       .085361                    
P  5  -9058.550900 -13177.649923 -21214.507992     -1.877364                    
V  5  15646.642344 -21906.013117   7015.844237      -.000026                    
P  6  14595.203942  13376.611513 -17585.109147    664.380291                    
V  6 -22773.650526   1453.358787 -17476.188357      -.095860                    
P  7  11079.745591 -10911.147812 -21521.457927       .420893                    
V  7  12255.903283  24392.968315  -6217.264099      -.003994                    
P  8   2983.232844 -20742.221100 -16003.046817      4.924115                    
V  8   9008.132552  18416.897841 -22720.942917       .002044                    
P  9 -17687.781791 -10104.830906  16534.200401      1.357695                    
V  9  -8700.176327 -20228.577814 -20944.645633       .020912                    
P 10  -1733.203082 -19490.394443 -17980.783576    -40.511232                    
V 10  14675.362566 -17312.047499  17873.301587      -.008822                    
P 11  20151.072443   3033.632256  16945.061191    -57.037071                    
V 11  11839.635158  18935.059721 -16841.336235      -.022769                    
P 12 -18521.851410   4429.104525  18503.720603   -125.733528                    
V 12  12201.248020 -20035.365317  17204.815374       .043968                    
P 13  22318.944075  -5614.916348 -13412.260589    305.244312                    
V 13  16372.975904   3754.283812  25921.066291      -.003097                    
P 14  -4298.503753  14231.231228  22137.505778     34.906998                    
V 14 -27482.586621  -3604.493872  -3158.128354       .045685                    
P 15 -24388.480081  -7094.312039  -7957.162534   -285.571606                    
V 15  10245.715879  -2137.811716 -29323.347535       .048503                    
P 16   3494.405815  17725.369868 -19326.314980    -62.378044                    
V 16 -15523.384724  19259.381924  15088.883071      -.038766                    
P 17   4558.536642 -14795.657903  21663.712067    144.828530                    
V 17  27123.553472   3083.280151  -3825.094283       .025939                    
P 18 -17591.653841  19080.975292  -4339.201577     62.400148                    
V 18    331.168733  -7035.244178 -30821.843090       .024401                    
P 19  24554.728367   8341.801158  -6402.520165    -28.653646                    
V 19  -8406.090460   1286.431894 -30092.798630      -.025763                    
P 20  19240.941813  -7763.217656  16414.201848     57.596925                    
V 20  -9425.309458  19124.624786  19977.601290      -.006489                    
P 21  -9048.291070  14893.273063 -19548.473007    -54.023626                    
V 21 -12480.991790 -22661.935276 -11931.090620      -.025906                    
P 22 -10573.628665  23345.334149   6958.703025    174.246641                    
V 22  -7901.936003   4999.857657 -29540.595054      -.010603                    
P 23  26363.121794   -804.508770  -4362.215229    373.965412                    
V 23   5241.785512   2721.817621  31076.694901      -.012696                    
P 24  -6345.041552  18389.056904 -18123.461176    279.763617                    
V 24 -10416.685908 -20689.688984 -17022.216593       .031459                    
P 26 -25541.780168   1278.518520   7374.420259    -40.422152                    
V 26  -9667.713697  -2912.570796 -30290.756616      -.045971                    
P 27 -18535.797537 -11779.354220  15721.998910    143.756029                    
V 27  -7813.542891 -16979.509273 -22807.570420       .033670                    
P 28  12234.447109 -22883.966000   5349.281586    -18.329048                    
V 28   5824.557756  -3466.100636 -31172.239673       .008314                    
P 29 -23009.388126   5841.528299 -11778.894939    113.242945                    
V 29 -14776.919129  -4025.705214  26689.733540       .028465                    
P 30 -18495.235027  15426.951768  10745.359855    234.443227                    
V 30   5181.776202 -13562.716962  27453.078462       .033854                    
P 31   5788.108322  24625.639278   8001.176849    -41.722890                    
V 31  -6305.483831  -7963.532726  30022.173737       .020476                    
P 32  16436.451621   3036.699267  20914.182962     49.650379                    
V 32 -15595.964271  20644.815980   9743.137165      -.085233                    
EOF
